CCSDS_OMM_VERS = 2.0
CREATION_DATE  = 
ORIGINATOR     = 

OBJECT_NAME    = UNKNOWN
OBJECT_ID      = 
CENTER_NAME    = EARTH
REF_FRAME      = TEME
TIME_SYSTEM    = UTC
MEAN_ELEMENT_THEORY = SGP/SGP4

EPOCH          = 2025-12-20T05:46:13.449216
MEAN_MOTION    = 13.38016705
ECCENTRICITY   = .0210275
INCLINATION    = 67.1350
RA_OF_ASC_NODE = 160.1135
ARG_OF_PERICENTER = 28.9242
MEAN_ANOMALY   = 152.9884

EPHEMERIS_TYPE = 0
CLASSIFICATION_TYPE = U
NORAD_CAT_ID   = 81317
ELEMENT_SET_NO = 999
REV_AT_EPOCH   = 58963
BSTAR          = .31034E-3
MEAN_MOTION_DOT = .122E-5
MEAN_MOTION_DDOT = 0

CCSDS_OMM_VERS = 2.0
CREATION_DATE  = 
ORIGINATOR     = 

OBJECT_NAME    = UNKNOWN
OBJECT_ID      = 
CENTER_NAME    = EARTH
REF_FRAME      = TEME
TIME_SYSTEM    = UTC
MEAN_ELEMENT_THEORY = SGP/SGP4

EPOCH          = 2025-12-26T16:15:06.848640
MEAN_MOTION    = 14.47379709
ECCENTRICITY   = .034503
INCLINATION    = 65.7521
RA_OF_ASC_NODE = 349.8986
ARG_OF_PERICENTER = 306.0245
MEAN_ANOMALY   = 50.9326

EPHEMERIS_TYPE = 0
CLASSIFICATION_TYPE = U
NORAD_CAT_ID   = 81323
ELEMENT_SET_NO = 999
REV_AT_EPOCH   = 11507
BSTAR          = .34386E-2
MEAN_MOTION_DOT = .26914E-3
MEAN_MOTION_DDOT = 0

CCSDS_OMM_VERS = 2.0
CREATION_DATE  = 
ORIGINATOR     = 

OBJECT_NAME    = UNKNOWN
OBJECT_ID      = 
CENTER_NAME    = EARTH
REF_FRAME      = TEME
TIME_SYSTEM    = UTC
MEAN_ELEMENT_THEORY = SGP/SGP4

EPOCH          = 2025-12-26T09:09:34.188480
MEAN_MOTION    = 13.22172459
ECCENTRICITY   = .0831998
INCLINATION    = 65.8199
RA_OF_ASC_NODE = 98.9756
ARG_OF_PERICENTER = 23.8137
MEAN_ANOMALY   = 339.9172

EPHEMERIS_TYPE = 0
CLASSIFICATION_TYPE = U
NORAD_CAT_ID   = 81329
ELEMENT_SET_NO = 999
REV_AT_EPOCH   = 57988
BSTAR          = .44581E-3
MEAN_MOTION_DOT = .1166E-4
MEAN_MOTION_DDOT = 0

CCSDS_OMM_VERS = 2.0
CREATION_DATE  = 
ORIGINATOR     = 

OBJECT_NAME    = UNKNOWN
OBJECT_ID      = 
CENTER_NAME    = EARTH
REF_FRAME      = TEME
TIME_SYSTEM    = UTC
MEAN_ELEMENT_THEORY = SGP/SGP4

EPOCH          = 2025-12-26T06:41:41.520192
MEAN_MOTION    = 15.03987252
ECCENTRICITY   = .0007173
INCLINATION    = 85.8718
RA_OF_ASC_NODE = 192.1182
ARG_OF_PERICENTER = 202.1519
MEAN_ANOMALY   = 157.9406

EPHEMERIS_TYPE = 0
CLASSIFICATION_TYPE = U
NORAD_CAT_ID   = 81343
ELEMENT_SET_NO = 999
REV_AT_EPOCH   = 45635
BSTAR          = .52703E-3
MEAN_MOTION_DOT = .7311E-4
MEAN_MOTION_DDOT = 0

CCSDS_OMM_VERS = 2.0
CREATION_DATE  = 
ORIGINATOR     = 

OBJECT_NAME    = UNKNOWN
OBJECT_ID      = 
CENTER_NAME    = EARTH
REF_FRAME      = TEME
TIME_SYSTEM    = UTC
MEAN_ELEMENT_THEORY = SGP/SGP4

EPOCH          = 2025-12-24T01:37:18.760800
MEAN_MOTION    = 13.78851002
ECCENTRICITY   = .011852
INCLINATION    = 66.7990
RA_OF_ASC_NODE = 24.8832
ARG_OF_PERICENTER = 315.8534
MEAN_ANOMALY   = 43.3124

EPHEMERIS_TYPE = 0
CLASSIFICATION_TYPE = U
NORAD_CAT_ID   = 81359
ELEMENT_SET_NO = 999
REV_AT_EPOCH   = 60704
BSTAR          = .85417E-3
MEAN_MOTION_DOT = .843E-5
MEAN_MOTION_DDOT = 0

CCSDS_OMM_VERS = 2.0
CREATION_DATE  = 
ORIGINATOR     = 

OBJECT_NAME    = UNKNOWN
OBJECT_ID      = 
CENTER_NAME    = EARTH
REF_FRAME      = TEME
TIME_SYSTEM    = UTC
MEAN_ELEMENT_THEORY = SGP/SGP4

EPOCH          = 2025-12-27T12:13:23.521728
MEAN_MOTION    = 13.45162806
ECCENTRICITY   = .0710015
INCLINATION    = 65.8843
RA_OF_ASC_NODE = 37.0589
ARG_OF_PERICENTER = 74.4410
MEAN_ANOMALY   = 293.3822

EPHEMERIS_TYPE = 0
CLASSIFICATION_TYPE = U
NORAD_CAT_ID   = 81366
ELEMENT_SET_NO = 999
REV_AT_EPOCH   = 6794
BSTAR          = .24972E-3
MEAN_MOTION_DOT = .615E-5
MEAN_MOTION_DDOT = 0

CCSDS_OMM_VERS = 2.0
CREATION_DATE  = 
ORIGINATOR     = 

OBJECT_NAME    = UNKNOWN
OBJECT_ID      = 
CENTER_NAME    = EARTH
REF_FRAME      = TEME
TIME_SYSTEM    = UTC
MEAN_ELEMENT_THEORY = SGP/SGP4

EPOCH          = 2025-12-15T00:29:41.942976
MEAN_MOTION    = 14.70293799
ECCENTRICITY   = .0070126
INCLINATION    = 98.8144
RA_OF_ASC_NODE = 85.6265
ARG_OF_PERICENTER = 358.1968
MEAN_ANOMALY   = 1.8972

EPHEMERIS_TYPE = 0
CLASSIFICATION_TYPE = U
NORAD_CAT_ID   = 81371
ELEMENT_SET_NO = 999
REV_AT_EPOCH   = 64217
BSTAR          = .37982E-3
MEAN_MOTION_DOT = .232E-4
MEAN_MOTION_DDOT = 0

CCSDS_OMM_VERS = 2.0
CREATION_DATE  = 
ORIGINATOR     = 

OBJECT_NAME    = UNKNOWN
OBJECT_ID      = 
CENTER_NAME    = EARTH
REF_FRAME      = TEME
TIME_SYSTEM    = UTC
MEAN_ELEMENT_THEORY = SGP/SGP4

EPOCH          = 2025-12-23T05:15:17.507232
MEAN_MOTION    = 14.36355118
ECCENTRICITY   = .0083954
INCLINATION    = 71.0480
RA_OF_ASC_NODE = 333.8064
ARG_OF_PERICENTER = 67.7151
MEAN_ANOMALY   = 293.2858

EPHEMERIS_TYPE = 0
CLASSIFICATION_TYPE = U
NORAD_CAT_ID   = 81386
ELEMENT_SET_NO = 999
REV_AT_EPOCH   = 62574
BSTAR          = .19923E-2
MEAN_MOTION_DOT = .6029E-4
MEAN_MOTION_DDOT = 0

CCSDS_OMM_VERS = 2.0
CREATION_DATE  = 
ORIGINATOR     = 

OBJECT_NAME    = UNKNOWN
OBJECT_ID      = 
CENTER_NAME    = EARTH
REF_FRAME      = TEME
TIME_SYSTEM    = UTC
MEAN_ELEMENT_THEORY = SGP/SGP4

EPOCH          = 2025-12-15T23:25:11.989344
MEAN_MOTION    = 12.35635489
ECCENTRICITY   = .0165329
INCLINATION    = 103.1059
RA_OF_ASC_NODE = 238.9104
ARG_OF_PERICENTER = 138.8219
MEAN_ANOMALY   = 222.5446

EPHEMERIS_TYPE = 0
CLASSIFICATION_TYPE = U
NORAD_CAT_ID   = 81390
ELEMENT_SET_NO = 999
REV_AT_EPOCH   = 50049
BSTAR          = -.84958E-3
MEAN_MOTION_DOT = -.162E-5
MEAN_MOTION_DDOT = 0

CCSDS_OMM_VERS = 2.0
CREATION_DATE  = 
ORIGINATOR     = 

OBJECT_NAME    = UNKNOWN
OBJECT_ID      = 
CENTER_NAME    = EARTH
REF_FRAME      = TEME
TIME_SYSTEM    = UTC
MEAN_ELEMENT_THEORY = SGP/SGP4

EPOCH          = 2025-12-27T05:49:42.951936
MEAN_MOTION    = 13.81774717
ECCENTRICITY   = .0042632
INCLINATION    = 100.4002
RA_OF_ASC_NODE = 350.9273
ARG_OF_PERICENTER = 353.6189
MEAN_ANOMALY   = 24.8119

EPHEMERIS_TYPE = 0
CLASSIFICATION_TYPE = U
NORAD_CAT_ID   = 81392
ELEMENT_SET_NO = 999
REV_AT_EPOCH   = 60418
BSTAR          = .33732E-2
MEAN_MOTION_DOT = .3584E-4
MEAN_MOTION_DDOT = 0

CCSDS_OMM_VERS = 2.0
CREATION_DATE  = 
ORIGINATOR     = 

OBJECT_NAME    = UNKNOWN
OBJECT_ID      = 
CENTER_NAME    = EARTH
REF_FRAME      = TEME
TIME_SYSTEM    = UTC
MEAN_ELEMENT_THEORY = SGP/SGP4

EPOCH          = 2025-12-23T22:27:18.432864
MEAN_MOTION    = 13.88908881
ECCENTRICITY   = .0161217
INCLINATION    = 99.4680
RA_OF_ASC_NODE = 46.2888
ARG_OF_PERICENTER = 193.8880
MEAN_ANOMALY   = 165.7816

EPHEMERIS_TYPE = 0
CLASSIFICATION_TYPE = U
NORAD_CAT_ID   = 81405
ELEMENT_SET_NO = 999
REV_AT_EPOCH   = 56335
BSTAR          = .14397E-2
MEAN_MOTION_DOT = .1886E-4
MEAN_MOTION_DDOT = 0

CCSDS_OMM_VERS = 2.0
CREATION_DATE  = 
ORIGINATOR     = 

OBJECT_NAME    = UNKNOWN
OBJECT_ID      = 
CENTER_NAME    = EARTH
REF_FRAME      = TEME
TIME_SYSTEM    = UTC
MEAN_ELEMENT_THEORY = SGP/SGP4

EPOCH          = 2025-12-20T22:27:15.498720
MEAN_MOTION    = 13.12175268
ECCENTRICITY   = .0869929
INCLINATION    = 65.8190
RA_OF_ASC_NODE = 136.2966
ARG_OF_PERICENTER = 316.2525
MEAN_ANOMALY   = 37.2633

EPHEMERIS_TYPE = 0
CLASSIFICATION_TYPE = U
NORAD_CAT_ID   = 81406
ELEMENT_SET_NO = 999
REV_AT_EPOCH   = 53475
BSTAR          = .39727E-3
MEAN_MOTION_DOT = .948E-5
MEAN_MOTION_DDOT = 0

