UNKNOWN                 
1 81317U          25354.24043344  .00000122  00000+0  31034-3 0  9991
2 81317  67.1350 160.1135 0210275  28.9242 152.9884 13.38016705589637
UNKNOWN                 
1 81323U          25360.67716260  .00026914  00000+0  34386-2 0  9995
2 81323  65.7521 349.8986 0345030 306.0245  50.9326 14.47379709115077
UNKNOWN                 
1 81329U          25360.38164570  .00001166  00000+0  44581-3 0  9991
2 81329  65.8199  98.9756 0831998  23.8137 339.9172 13.22172459579886
UNKNOWN                 
1 81343U          25360.27895278  .00007311  00000+0  52703-3 0  9994
2 81343  85.8718 192.1182 0007173 202.1519 157.9406 15.03987252456357
UNKNOWN                 
1 81359U          25358.06757825  .00000843  00000+0  85417-3 0  9991
2 81359  66.7990  24.8832 0118520 315.8534  43.3124 13.78851002607047
UNKNOWN                 
1 81366U          25361.50930002  .00000615  00000+0  24972-3 0  9998
2 81366  65.8843  37.0589 0710015  74.4410 293.3822 13.45162806 67947
UNKNOWN                 
1 81371U          25349.02062434  .00002320  00000+0  37982-3 0  9992
2 81371  98.8144  85.6265 0070126 358.1968   1.8972 14.70293799642172
UNKNOWN                 
1 81386U          25357.21895263  .00006029  00000+0  19923-2 0  9996
2 81386  71.0480 333.8064 0083954  67.7151 293.2858 14.36355118625749
UNKNOWN                 
1 81390U          25349.97583321 -.00000162  00000+0 -84958-3 0  9999
2 81390 103.1059 238.9104 0165329 138.8219 222.5446 12.35635489500496
UNKNOWN                 
1 81392U          25361.24285824  .00003584  00000+0  33732-2 0  9994
2 81392 100.4002 350.9273 0042632 353.6189  24.8119 13.81774717604183
UNKNOWN                 
1 81405U          25357.93563001  .00001886  00000+0  14397-2 0  9995
2 81405  99.4680  46.2888 0161217 193.8880 165.7816 13.88908881563357
UNKNOWN                 
1 81406U          25354.93559605  .00000948  00000+0  39727-3 0  9991
2 81406  65.8190 136.2966 0869929 316.2525  37.2633 13.12175268534754
